[
    {  "place_name":"San Francisco, CA", "place_lat":"37.7749295", "place_long":"-122.4194155",
        "place_description":"description", "place_style":"cross"},
    {  "place_name":"Austin, TX", "place_lat":"30.267153", "place_long":"-97.7430608",
        "place_description":"description", "place_style":"cross"},
    {  "place_name":"Chicago, IL", "place_lat":"41.8781136", "place_long":"-87.6297982",
        "place_description":"description", "place_style":"cross"},
    {  "place_name":"Oakland, CA", "place_lat":"37.8043637", "place_long":"-122.2711137",
        "place_description":"description", "place_style":"cross"},
    {  "place_name":"Philadelphia, PA", "place_lat":"39.952335", "place_long":"-75.163789",
        "place_description":"description", "place_style":"cross"},
    {  "place_name":"New York, NY", "place_lat":"40.7143528", "place_long":"-74.0059731",
        "place_description":"description", "place_style":"cross"},
    {  "place_name":"Boston, MA", "place_lat":"42.3584308", "place_long":"-71.0597732",
        "place_description":"description", "place_style":"cross"},
    {  "place_name":"Raleigh, NC", "place_lat":"35.772096", "place_long":"-78.6386145",
        "place_description":"description", "place_style":"cross"},
    {  "place_name":"New York City", "place_lat":"40.7143528", "place_long":"-74.0059731",
        "place_description":"description", "place_style":"cross"},
    {  "place_name":"Seattle, WA", "place_lat":"47.6062095", "place_long":"-122.3320708",
        "place_description":"description", "place_style":"cross"},
    {  "place_name":"Kansas City, MO", "place_lat":"39.0997265", "place_long":"-94.5785667",
        "place_description":"description", "place_style":"cross"},
    {  "place_name":"Los Angeles, CA", "place_lat":"34.0522342", "place_long":"-118.2436849",
        "place_description":"description", "place_style":"cross"},
    {  "place_name":"Norfolk, VA", "place_lat":"36.8507689", "place_long":"-76.2858726",
        "place_description":"description", "place_style":"cross"},
    {  "place_name":"Washington, D.C.", "place_lat":"38.8951118", "place_long":"-77.0363658",
        "place_description":"description", "place_style":"cross"},
    {  "place_name":"Detroit, MI", "place_lat":"42.331427", "place_long":"-83.0457538",
        "place_description":"description", "place_style":"cross"},
    {  "place_name":"Madison,WI", "place_lat":"43.0730517", "place_long":"-89.4012302",
        "place_description":"description", "place_style":"cross"},
    {  "place_name":"Pittsburgh, PA", "place_lat":"40.4406248", "place_long":"-79.9958864",
        "place_description":"description", "place_style":"cross"},
    {  "place_name":"Tulsa, OK", "place_lat":"36.1539816", "place_long":"-95.992775",
        "place_description":"description", "place_style":"cross"},
    {  "place_name":"Brooklyn, NY", "place_lat":"40.6528762", "place_long":"-73.959494",
        "place_description":"description", "place_style":"cross"},
    {  "place_name":"Minneapolis, MN", "place_lat":"44.983334", "place_long":"-93.26667",
        "place_description":"description", "place_style":"cross"},
    {  "place_name":"Salt Lake City, UT", "place_lat":"40.7607793", "place_long":"-111.8910474",
        "place_description":"description", "place_style":"cross"},
    {  "place_name":"Atlanta, GA", "place_lat":"33.7489954", "place_long":"-84.3879824",
        "place_description":"description", "place_style":"cross"},
    {  "place_name":"Indianapolis, IN", "place_lat":"39.7685155", "place_long":"-86.1580736",
        "place_description":"description", "place_style":"cross"},
    {  "place_name":"Louisville, KY", "place_lat":"38.2526647", "place_long":"-85.7584557",
        "place_description":"description", "place_style":"cross"},
    {  "place_name":"New Orleans, LA", "place_lat":"29.9510658", "place_long":"-90.0715323",
        "place_description":"description", "place_style":"cross"},
    {  "place_name":"Portland, OR", "place_lat":"45.5234515", "place_long":"-122.6762071",
        "place_description":"description", "place_style":"cross"},
    {  "place_name":"Richmond, VA", "place_lat":"37.5407246", "place_long":"-77.4360481",
        "place_description":"description", "place_style":"cross"},
    {  "place_name":"San Diego, CA", "place_lat":"32.7153292", "place_long":"-117.1572551",
        "place_description":"description", "place_style":"cross"},
    {  "place_name":"Washington, DC", "place_lat":"38.8951118", "place_long":"-77.0363658",
        "place_description":"description", "place_style":"cross"},
    {  "place_name":"Ann Arbor, MI", "place_lat":"42.2808256", "place_long":"-83.7430378",
        "place_description":"description", "place_style":"cross"},
    {  "place_name":"Dallas, TX", "place_lat":"32.802955", "place_long":"-96.769923",
        "place_description":"description", "place_style":"cross"},
    {  "place_name":"Denver, CO", "place_lat":"39.7391536", "place_long":"-104.9847034",
        "place_description":"description", "place_style":"cross"},
    {  "place_name":"Honolulu, HI", "place_lat":"21.3069444", "place_long":"-157.8583333",
        "place_description":"description", "place_style":"cross"},
    {  "place_name":"Houston, TX", "place_lat":"29.7601927", "place_long":"-95.3693896",
        "place_description":"description", "place_style":"cross"},
    {  "place_name":"San Jose, CA", "place_lat":"-", "place_long":"-",
        "place_description":"description", "place_style":"cross"},
    {  "place_name":"Virginia Beach, VA", "place_lat":"36.8529263", "place_long":"-75.977985",
        "place_description":"description", "place_style":"cross"},
    {  "place_name":"Albuquerque, NM", "place_lat":"35.0844909", "place_long":"-106.6511367",
        "place_description":"description", "place_style":"cross"},
    {  "place_name":"Anchorage, AK", "place_lat":"61.2180556", "place_long":"-149.9002778",
        "place_description":"description", "place_style":"cross"},
    {  "place_name":"Asheville, NC", "place_lat":"-", "place_long":"-",
        "place_description":"description", "place_style":"cross"},
    {  "place_name":"Baltimore, MD", "place_lat":"39.2903848", "place_long":"-76.6121893",
        "place_description":"description", "place_style":"cross"},
    {  "place_name":"Las Vegas, NV", "place_lat":"36.255123", "place_long":"-115.2383485",
        "place_description":"description", "place_style":"cross"},
    {  "place_name":"Lexington, KY", "place_lat":"38.0405837", "place_long":"-84.5037164",
        "place_description":"description", "place_style":"cross"},
    {  "place_name":"Miami, FL", "place_lat":"25.7889689", "place_long":"-80.2264393",
        "place_description":"description", "place_style":"cross"},
    {  "place_name":"Phoenix, AZ", "place_lat":"33.4483771", "place_long":"-112.0740373",
        "place_description":"description", "place_style":"cross"},
    {  "place_name":"Tucson, AZ", "place_lat":"32.2217429", "place_long":"-110.926479",
        "place_description":"description", "place_style":"cross"},
    {  "place_name":"Akron, OH", "place_lat":"41.0814447", "place_long":"-81.5190053",
        "place_description":"description", "place_style":"cross"},
    {  "place_name":"Alexandria, VA", "place_lat":"38.8048355", "place_long":"-77.0469214",
        "place_description":"description", "place_style":"cross"},
    {  "place_name":"Arlington, VA", "place_lat":"38.8799697", "place_long":"-77.1067698",
        "place_description":"description", "place_style":"cross"},
    {  "place_name":"Bend, OR", "place_lat":"44.0581728", "place_long":"-121.3153096",
        "place_description":"description", "place_style":"cross"},
    {  "place_name":"Berkeley, CA", "place_lat":"-", "place_long":"-",
        "place_description":"description", "place_style":"cross"},
    {  "place_name":"Bloomington, IN", "place_lat":"39.165325", "place_long":"-86.5263857",
        "place_description":"description", "place_style":"cross"},
    {  "place_name":"Boulder, CO", "place_lat":"40.0149856", "place_long":"-105.2705456",
        "place_description":"description", "place_style":"cross"},
    {  "place_name":"Champaign, Illinois", "place_lat":"40.1164204", "place_long":"-88.2433829",
        "place_description":"description", "place_style":"cross"},
    {  "place_name":"Chattanooga, TN", "place_lat":"35.0456297", "place_long":"-85.3096801",
        "place_description":"description", "place_style":"cross"},
    {  "place_name":"Cincinnati, OH", "place_lat":"39.1031182", "place_long":"-84.5120196",
        "place_description":"description", "place_style":"cross"},
    {  "place_name":"Cleveland, OH", "place_lat":"41.4994954", "place_long":"-81.6954088",
        "place_description":"description", "place_style":"cross"},
    {  "place_name":"Columbus, Ohio", "place_lat":"39.9611755", "place_long":"-82.9987942",
        "place_description":"description", "place_style":"cross"},
    {  "place_name":"Fargo, ND", "place_lat":"46.8771863", "place_long":"-96.7898034",
        "place_description":"description", "place_style":"cross"},
    {  "place_name":"Fort lauderdale, fl", "place_lat":"26.1223084", "place_long":"-80.1433786",
        "place_description":"description", "place_style":"cross"},
    {  "place_name":"Hartford, Connecticut", "place_lat":"41.7637111", "place_long":"-72.6850932",
        "place_description":"description", "place_style":"cross"},
    {  "place_name":"Hoboken, NJ", "place_lat":"40.7439905", "place_long":"-74.0323626",
        "place_description":"description", "place_style":"cross"},
    {  "place_name":"Jacksonville, FL", "place_lat":"30.3321838", "place_long":"-81.655651",
        "place_description":"description", "place_style":"cross"},
    {  "place_name":"Nashville, TN", "place_lat":"36.1666667", "place_long":"-86.7833333",
        "place_description":"description", "place_style":"cross"},
    {  "place_name":"Orlando, FL", "place_lat":"28.5383355", "place_long":"-81.3792365",
        "place_description":"description", "place_style":"cross"},
    {  "place_name":"Portland, ME", "place_lat":"43.661471", "place_long":"-70.2553259",
        "place_description":"description", "place_style":"cross"},
    {  "place_name":"Reno, NV", "place_lat":"39.5296329", "place_long":"-119.8138027",
        "place_description":"description", "place_style":"cross"},
    {  "place_name":"Rochester, NY", "place_lat":"43.16103", "place_long":"-77.6109219",
        "place_description":"description", "place_style":"cross"},
    {  "place_name":"Sacramento, CA", "place_lat":"38.5815719", "place_long":"-121.4943996",
        "place_description":"description", "place_style":"cross"},
    {  "place_name":"Santa Barbara, CA", "place_lat":"34.4208305", "place_long":"-119.6981901",
        "place_description":"description", "place_style":"cross"},
    {  "place_name":"Savannah, GA", "place_lat":"32.0835407", "place_long":"-81.0998342",
        "place_description":"description", "place_style":"cross"},
    {  "place_name":"St Petersburg, FL", "place_lat":"27.7730556", "place_long":"-82.64",
        "place_description":"description", "place_style":"cross"},
    {  "place_name":"Tampa, FL", "place_lat":"27.950575", "place_long":"-82.4571776",
        "place_description":"description", "place_style":"cross"},
    {  "place_name":"Trenton, NJ", "place_lat":"-", "place_long":"-",
        "place_description":"description", "place_style":"cross"},
    {  "place_name":"Anacortes, WA", "place_lat":"48.5126045", "place_long":"-122.6126718",
        "place_description":"description", "place_style":"cross"},
    {  "place_name":"Appleton, WI", "place_lat":"44.2619309", "place_long":"-88.4153847",
        "place_description":"description", "place_style":"cross"},
    {  "place_name":"Baton Rouge, LA", "place_lat":"30.4582829", "place_long":"-91.1403196",
        "place_description":"description", "place_style":"cross"},
    {  "place_name":"Beaufort, SC", "place_lat":"32.4315813", "place_long":"-80.6698286",
        "place_description":"description", "place_style":"cross"},
    {  "place_name":"Bel Air, MD", "place_lat":"39.5359406", "place_long":"-76.3482931",
        "place_description":"description", "place_style":"cross"},
    {  "place_name":"Biloxi, MS", "place_lat":"30.3960318", "place_long":"-88.8853078",
        "place_description":"description", "place_style":"cross"},
    {  "place_name":"Birmingham, AL", "place_lat":"33.5206608", "place_long":"-86.80249",
        "place_description":"description", "place_style":"cross"},
    {  "place_name":"Boise, ID", "place_lat":"43.612631", "place_long":"-116.211076",
        "place_description":"description", "place_style":"cross"},
    {  "place_name":"Burlington, VT", "place_lat":"44.4758825", "place_long":"-73.212072",
        "place_description":"description", "place_style":"cross"},
    {  "place_name":"Champaign-Urbana, IL", "place_lat":"40.1105875", "place_long":"-88.2072697",
        "place_description":"description", "place_style":"cross"},
    {  "place_name":"Charleston, WV", "place_lat":"38.3498195", "place_long":"-81.6326234",
        "place_description":"description", "place_style":"cross"},
    {  "place_name":"Chennai,TN", "place_lat":"13.060422", "place_lat":"80.249583",
        "place_description":"description", "place_style":"cross"},
    {  "place_name":"Duluth, MN", "place_lat":"46.7866719", "place_long":"-92.1004852",
        "place_description":"description", "place_style":"cross"},
    {  "place_name":"Eugene, OR", "place_lat":"44.0520691", "place_long":"-123.0867536",
        "place_description":"description", "place_style":"cross"},
    {  "place_name":"Fort Wayne, IN", "place_lat":"41.079273", "place_long":"-85.1393513",
        "place_description":"description", "place_style":"cross"},
    {  "place_name":"Fort Worth, TX", "place_lat":"32.725409", "place_long":"-97.3208496",
        "place_description":"description", "place_style":"cross"},
    {  "place_name":"Gaithersburg, MD", "place_lat":"39.1434406", "place_long":"-77.2013705",
        "place_description":"description", "place_style":"cross"},
    {  "place_name":"Grand Rapids, MI", "place_lat":"42.9633599", "place_long":"-85.6680863",
        "place_description":"description", "place_style":"cross"},
    {  "place_name":"Hawaii County", "place_lat":"19.5429151", "place_long":"-155.6658568",
        "place_description":"description", "place_style":"cross"},
    {  "place_name":"Holland, MI", "place_lat":"42.7875235", "place_long":"-86.1089301",
        "place_description":"description", "place_style":"cross"},
    {  "place_name":"Independence, Oregon", "place_lat":"44.8512305", "place_long":"-123.1867655",
        "place_description":"description", "place_style":"cross"},
    {  "place_name":"Ithaca, NY", "place_lat":"42.4439614", "place_long":"-76.5018807",
        "place_description":"description", "place_style":"cross"},
    {  "place_name":"Lansing, MI", "place_lat":"42.732535", "place_long":"-84.5555347",
        "place_description":"description", "place_style":"cross"},
    {  "place_name":"Lone Tree, CO", "place_lat":"-", "place_long":"-",
        "place_description":"description", "place_style":"cross"},
    {  "place_name":"Long Island, NY", "place_lat":"40.7891424", "place_long":"-73.1349605",
        "place_description":"description", "place_style":"cross"},
    {  "place_name":"Loudoun, VA", "place_lat":"39.076767", "place_long":"-77.6536125",
        "place_description":"description", "place_style":"cross"},
    {  "place_name":"Macon, GA", "place_lat":"32.8406946", "place_long":"-83.6324022",
        "place_description":"description", "place_style":"cross"},
    {  "place_name":"Memphis, TN", "place_lat":"35.1495343", "place_long":"-90.0489801",
        "place_description":"description", "place_style":"cross"},
    {  "place_name":"Missoula, MT", "place_lat":"46.8605189", "place_long":"-114.019501",
        "place_description":"description", "place_style":"cross"},
    {  "place_name":"Monroe, LA", "place_lat":"32.5093109", "place_long":"-92.1193012",
        "place_description":"description", "place_style":"cross"},
    {  "place_name":"Montclair, NJ", "place_lat":"40.8259007", "place_long":"-74.2090053",
        "place_description":"description", "place_style":"cross"},
    {  "place_name":"Natal, RN", "place_lat":"-5.7944785", "place_long":"-35.2109531",
        "place_description":"description", "place_style":"cross"},
    {  "place_name":"New Haven, CT", "place_lat":"41.3081527", "place_long":"-72.9281577",
        "place_description":"description", "place_style":"cross"},
    {  "place_name":"Niagara Falls, Ontario, Canada", "place_lat":"43.0895577", "place_long":"-79.0849436",
        "place_description":"description", "place_style":"cross"},
    {  "place_name":"Oak Park, IL", "place_lat":"41.8850317", "place_long":"-87.7845025",
        "place_description":"description", "place_style":"cross"},
    {  "place_name":"Omaha, NE", "place_lat":"41.2523634", "place_long":"-95.9979883",
        "place_description":"description", "place_style":"cross"},
    {  "place_name":"Parkersburg, WV", "place_lat":"39.2667418", "place_long":"-81.5615135",
        "place_description":"description", "place_style":"cross"},
    {  "place_name":"Pleasant Hill, IA", "place_lat":"41.5873903", "place_long":"-93.5196138",
        "place_description":"description", "place_style":"cross"},
    {  "place_name":"Providence, RI", "place_lat":"41.8239891", "place_long":"-71.4128343",
        "place_description":"description", "place_style":"cross"},
    {  "place_name":"Redwood City, CA", "place_lat":"37.4852152", "place_long":"-122.2363548",
        "place_description":"description", "place_style":"cross"},
    {  "place_name":"Reston, VA", "place_lat":"38.9586307", "place_long":"-77.3570028",
        "place_description":"description", "place_style":"cross"},
    {  "place_name":"Rockville, MD", "place_lat":"39.0839973", "place_long":"-77.1527578",
        "place_description":"description", "place_style":"cross"},
    {  "place_name":"San Antonio, TX", "place_lat":"29.4241219", "place_long":"-98.4936282",
        "place_description":"description", "place_style":"cross"},
    {  "place_name":"Santa Cruz, CA", "place_lat":"36.9741171", "place_long":"-122.0307963",
        "place_description":"description", "place_style":"cross"},
    {  "place_name":"Simi Valley, CA", "place_lat":"34.2694474", "place_long":"-118.781482",
        "place_description":"description", "place_style":"cross"},
    {  "place_name":"Spartanburg, SC", "place_lat":"34.9495672", "place_long":"-81.9320482",
        "place_description":"description", "place_style":"cross"},
    {  "place_name":"St. Paul, MN", "place_lat":"44.9537029", "place_long":"-93.0899578",
        "place_description":"description", "place_style":"cross"},
    {  "place_name":"Syracuse, NY", "place_lat":"43.0481221", "place_long":"-76.1474244",
        "place_description":"description", "place_style":"cross"},
    {  "place_name":"Topeka, KS", "place_lat":"39.0558235", "place_long":"-95.6890185",
        "place_description":"description", "place_style":"cross"},
    {  "place_name":"Tyler, TX", "place_lat":"32.3512601", "place_long":"-95.3010624",
        "place_description":"description", "place_style":"cross"},
    {  "place_name":"Whitewater, WI", "place_lat":"42.8336205", "place_long":"-88.7323272",
        "place_description":"description", "place_style":"cross"},
    {  "place_name":"Banff, Alberta, Canada", "place_lat":"51.1780556", "place_long":"-115.5719444",
        "place_description":"description", "place_style":"cross"},
    {  "place_name":"BANGLADESH", "place_lat":"23.684994", "place_long":"90.356331",
        "place_description":"description", "place_style":"cross"},
    {  "place_name":"Copenhagen", "place_lat":"55.6760968", "place_long":"12.5683371",
        "place_description":"description", "place_style":"cross"},
    {  "place_name":"india", "place_lat":"20.593684", "place_long":"78.96288",
        "place_description":"description", "place_style":"cross"},
    {  "place_name":"Ireland", "place_lat":"53.41291", "place_long":"-8.24389",
        "place_description":"description", "place_style":"cross"},
    {  "place_name":"Switzerland", "place_lat":"46.818188", "place_long":"8.227512",
        "place_description":"description", "place_style":"cross"}
]
